CAS-2T & KS-1Q
1 41847U 16066G   25077.14806734  .00003521  00000-0  50650-3 0  9997
2 41847  98.4253 152.3292 0348371  70.9454 292.9124 14.43159904438987
GOES-16
1 41866U 16071A   25077.02629749 -.00000242  00000-0  00000+0 0  9998
2 41866   0.0849 287.5126 0001977  88.6244  93.7819  1.00267200 30520
FENGYUN-4A
1 41882U 16077A   25067.80059639 -.00000113  00000-0  00000-0 0  9990
2 41882   1.1339  85.1667 0004787 173.2627 349.1682  1.00660049 30269
FOX-1B (AO-91)
1 43017U 17073E   25076.62369666  .00016741  00000-0  88048-3 0  9997
2 43017  97.5401 309.5643 0181355  92.2352 269.9651 15.02555584396599
CANX-2
1 32790U 08021H   25076.98692796  .00012434  00000-0  98952-3 0  9998
2 32790  97.8057  46.1954 0014506 115.6089 244.6636 15.00458590916356
AIST-2 (RS-43)
1 39133U 13015D   25077.19087341  .00012567  00000-0  59442-3 0  9991
2 39133  64.8713 300.6457 0028456 288.0301  71.7726 15.19317203654908
NANOSATC-BR1
1 40024U 14033Q   25076.96847810  .00030982  00000-0  16537-2 0  9990
2 40024  98.0905  69.2739 0003952 357.5535   2.5675 15.15072675585058
QB50P1
1 40025U 14033R   25076.89402343  .00023463  00000-0  15104-2 0  9996
2 40025  98.0775  54.9804 0010462 351.3026   8.8017 15.08324467584014
QB50P2
1 40032U 14033Y   25076.88041814  .00018749  00000-0  12741-2 0  9990
2 40032  98.0365  44.5680 0006485 290.2672  69.7856 15.06398374583766
PERSEUS-M2
1 40037U 14033AD  25077.15863002  .00006018  00000-0  58120-3 0  9995
2 40037  97.9491  15.7581 0012903  17.9945 342.1729 14.93159782583173
PERSEUS-M1
1 40039U 14033AF  25076.80803841  .00005814  00000-0  56256-3 0  9994
2 40039  97.9242  10.6340 0012711  18.0609 342.1059 14.93098959582478
POLYITAN-1
1 40042U 14033AJ  25077.19991989  .00034612  00000-0  18459-2 0  9992
2 40042  98.1011  61.7603 0007625 292.7646  67.2778 15.15058866584651
TIGRISAT
1 40043U 14033AK  25076.91956908  .00008579  00000-0  10539-2 0  9998
2 40043  97.7236 234.9734 0053102 129.5133 231.0792 14.82269709577960
UKUBE-1
1 40074U 14037F   25077.10010726  .00022524  00000-0  16711-2 0  9991
2 40074  98.3843  32.2881 0000494  94.3938 265.7341 15.03081871579798
DEORBITSAIL
1 40719U 15032E   25076.85828120  .00018215  00000-0  16716-2 0  9996
2 40719  97.6532 298.4031 0010969 313.0211  47.0089 14.94861579522863
HORYU-IV
1 41340U 16012D   25076.83745405  .00045166  00000-0  14249-2 0  9992
2 41340  30.9985 333.1880 0008438 279.6754  80.2937 15.31607366499916
D-SAT
1 42794U 17036AF  25077.17676496  .00018585  00000-0  10789-2 0  9994
2 42794  97.5085  56.7486 0094508 294.6680  64.4729 15.08404373421946
CORVUS-BC2
1 42846U 17042X   25076.46606797  .00008684  00000-0  66699-3 0  9998
2 42846  97.3695 253.1759 0012726 219.5830 140.4467 15.01912704418406
CORVUS-BC1
1 42847U 17042Y   25076.73059901  .00009022  00000-0  68863-3 0  9990
2 42847  97.3715 253.8917 0012280 196.9224 163.1593 15.02147009418460
APRIZESAT-5 
1 37792U 11044E   25077.17952599  .00004221  00000-0  55684-3 0  9996
2 37792  98.2326 353.4133 0054559  31.4452 329.0001 14.79594391731467
APRIZESAT-6
1 37793U 11044F   25077.18979641  .00002640  00000-0  38679-3 0  9993
2 37793  98.2695 333.0122 0045365 103.0545  47.8694 14.75803669730013
APRIZESAT-7
1 39416U 13066A   25076.91064922  .00004529  00000-0  47386-3 0  9993
2 39416  97.7120  34.0888 0035435 284.1212  75.6069 14.89666024613258
APRIZESAT-8
1 39425U 13066K   25076.82197736  .00004200  00000-0  47643-3 0  9995
2 39425  97.7676  27.8165 0047114 349.2295  10.7908 14.86069226611857
BUGSAT-1 (TITA)
1 40014U 14033E   25076.93419763  .00012003  00000-0  74359-3 0  9999
2 40014  98.0834 138.9487 0030687 292.3934  67.4043 15.09544379586863
SAUDISAT-4
1 40016U 14033G   25077.00937442  .00002808  00000-0  38454-3 0  9997
2 40016  97.6949 236.0174 0046953 117.5380 243.0614 14.78481890578664
TABLETSAT-AURORA
1 40017U 14033H   25077.20123783  .00016237  00000-0  10056-2 0  9993
2 40017  98.0845 120.3246 0012594 332.5365  27.5195 15.09807443586238
APRIZESAT-9
1 40018U 14033J   25076.95698928  .00002842  00000-0  43305-3 0  9994
2 40018  97.8387 218.4142 0066555 226.4734 133.0934 14.73193942576491
APRIZESAT-10
1 40019U 14033K   25076.94866700  .00002023  00000-0  33009-3 0  9990
2 40019  97.9018 211.0251 0078812 291.1286  68.1509 14.69981627575387
AISAT
1 40054U 14034B   25077.13138358  .00022375  00000-0  19078-2 0  9994
2 40054  98.3000 314.1776 0007149 312.2673  47.7941 14.97727809578690
COSMOS-2407 [+]
1 28380U 04028A   25077.02544813  .00000132  00000-0  11861-3 0  9999
2 28380  82.9592  52.6328 0040674  88.2246 340.4043 13.76277641 37322
COSMOS-2414 [+]
1 28521U 05002A   25076.90179582  .00000164  00000-0  12405-3 0  9992
2 28521  82.9521  28.7352 0039806 188.5490 171.5001 13.87859288 20528
COSMOS-2463 [+]
1 36519U 10017A   25076.92274877  .00000099  00000-0  92656-4 0  9999
2 36519  82.9599 224.9273 0035198 317.5861 158.9030 13.71616912745384
NOAA-15
1 25338U 98030A   25077.15895069  .00000498  00000-0  22250-3 0  9990
2 25338  98.5449 104.2645 0009292 239.8298 120.1963 14.26912125396505
NOAA-18
1 28654U 05018A   25077.17049585  .00000531  00000-0  30518-3 0  9998
2 28654  98.8459 157.5774 0014083  10.7571 349.3900 14.13545265 21965
NOAA-19
1 33591U 09005A   25077.16328787  .00000479  00000-0  27966-3 0  9991
2 33591  99.0065 141.3711 0013013 236.5861 123.4066 14.13312106830329
SARAL
1 39086U 13009A   25076.94370161  .00000402  00000-0  16401-3 0  9991
2 39086  98.5536 264.3775 0001947 163.3249 196.8000 14.32680912630275
LAPAN-A3
1 41603U 16040E   25077.21559840  .00007720  00000-0  27674-3 0  9995
2 41603  97.1401  85.1308 0010553 196.8697 163.2194 15.28935529485049
BIROS
1 41604U 16040F   25076.91596357  .00054151  00000-0  78950-3 0  9999
2 41604  97.0960 106.0065 0008248 119.9754 240.2321 15.55494298486468
METOP-A
1 29499U 06044A   25077.18840987  .00006010  00000-0  71680-3 0  9995
2 29499  98.3301 165.6427 0181755  81.0279 311.8884 14.73510516961095
METEOR M1
1 35865U 09049A   25077.18509044  .00000470  00000-0  22828-3 0  9997
2 35865  98.6763  39.7013 0002271 160.2940 199.8326 14.22975043804530
METOP-B
1 38771U 12049A   25077.12714328  .00000368  00000-0  18781-3 0  9996
2 38771  98.5884 133.6509 0000744 141.7769 218.3462 14.21454249648467
METEOR M2
1 40069U 14037A   25077.19733044  .00000501  00000-0  24908-3 0  9998
2 40069  98.4632  65.5600 0004589 286.0827  73.9845 14.21244155554542
CSSWE
1 38761U 12048D   25076.64674430  .00032560  00000-0  12270-2 0  9994
2 38761  64.6658 170.5448 0118667 297.2615  61.6462 15.20520048 46475
MCUBED-2
1 39469U 13072H   25076.93765598  .00022125  00000-0  11576-2 0  9990
2 39469 120.4954  49.4646 0170765 242.1520 116.2148 15.04142915 48875
IPEX
1 39471U 13072K   25076.74853173  .00015315  00000-0  91942-3 0  9998
2 39471 120.4687  17.6043 0184673 234.4181 123.9544 14.98075390 46618
FOX-1A (AO-85)
1 40967U 15058D   25076.77117702  .00010990  00000-0  94276-3 0  9997
2 40967  64.7751 253.5873 0173329 221.7816 136.9955 14.86937543 45606
OOREOS
1 37224U 10062C   25076.91001365  .00007801  00000-0  79736-3 0  9993
2 37224  71.9737  31.6277 0016642 222.0943 137.8949 14.90713779 48574
STARS (KUKAI)
1 33498U 09002G   25076.72114339  .00010617  00000-0  10871-2 0  9992
2 33498  98.1217   3.3944 0007682 227.2671 132.7900 14.90669216870359
YUBELEINY-2 (RS-40)
1 38735U 12041C   25076.76568739  .00000044  00000-0  25106-3 0  9990
2 38735  82.4824 359.2881 0017514 346.7724  13.2894 12.42627741573157
AIST-1
1 39492U 13078C   25077.19336021  .00005381  00000-0  50109-3 0  9997
2 39492  82.4203 351.9395 0017873   9.9652 350.1919 14.94002343609441
VELOX-1
1 40057U 14034E   25077.18377771  .00013288  00000-0  13203-2 0  9993
2 40057  98.3053 312.2328 0007883 339.9574  20.1332 14.91818779578470
DX1
1 40071U 14037C   25077.17202370  .00005834  00000-0  64827-3 0  9990
2 40071  98.3401   8.6753 0006617 326.7170  33.3627 14.87584425578332
AAUSAT CUBESAT 2
1 32788U 08021F   25076.94351728  .00215182  00000-0  29563-2 0  9994
2 32788  97.6063  70.4510 0004078 113.7391 246.4291 15.56556365920345
COSMOS-2491 (RS-46) [i]
1 39497U 13076E   25077.22324323  .00000022  00000-0  84342-4 0  9990
2 39497  82.4798  92.6559 0013150  11.2549 348.8823 12.43487114509342
COSMOS-2499 (RS-47) [i]
1 39765U 14028E   25077.12553677  .00000029  00000-0  69341-4 0  9990
2 39765  82.4524 200.1598 0231198 352.6220   7.1500 12.82887647506766
TRANSIT 5B-5
1 00965U 64083D   25076.89426333  .00000129  00000-0  16683-3 0  9998
2 00965  90.0603 199.7875 0041905 169.7531 306.3992 13.56952142981724
EUTELSAT 1-F4 (ECS 4)
1 18351U 87078B   25075.83493877 -.00000029  00000-0  00000-0 0  9998
2 18351  14.1552 345.3348 0010837  27.2668 141.2915  0.98688316122241
BISONSAT
1 40968U 15058E   25076.79208310  .00018010  00000-0  14364-2 0  9996
2 40968  64.7756 242.8128 0164107 220.8128 138.0600 14.90377438 48504
DTUSAT-2
1 40030U 14033W   25076.39089490  .00018706  00000-0  12747-2 0  9995
2 40030  98.0474  44.2863 0009468 358.4395   1.6800 15.06278031583714
ELEKTRO-L2
1 41105U 15074A   25077.18120516 -.00000109  00000-0  00000+0 0  9993
2 41105   5.5396  76.1249 0002779 232.2562 278.3083  1.00272477 33947
DOVE-3
1 39429U 13066P   25076.59959225  .00008406  00000-0  11814-2 0  9994
2 39429  97.7238 314.2809 0122696  62.0173 299.3389 14.72499045603723
FORTE
1 24920U 97047A   25077.09880765  .00000680  00000-0  29841-3 0  9999
2 24920  69.9546 323.9538 0022617 187.4362 172.6428 14.27621192433858
DMSP 5D-2 F15/USA-147
1 25991U 99067A   25076.95105738  .00000457  00000-0  24908-3 0  9997
2 25991  99.0485 103.5025 0009339 214.5810 264.7794 14.17320270306010
CASSIOPE-1
1 39265U 13055A   25076.92845756  .00056371 -37542-6  93654-3 0  9995
2 39265  80.9415 246.0971 0414090 123.2086 240.9553 14.92137330598893
D-STAR ONE PHOENIX
1 43188U 18014J   25076.80852619  .00014227  00000-0  86695-3 0  9990
2 43188  97.5712 340.7165 0010942 140.3714 219.8317 15.10432805389728
